[{"OBJECT_NAME":"GAOFEN-3 02","OBJECT_ID":"2021-109A","EPOCH":"2026-03-09T23:26:55.915584","MEAN_MOTION":14.42215794,"ECCENTRICITY":0.00015915,"INCLINATION":98.4134,"RA_OF_ASC_NODE":78.4682,"ARG_OF_PERICENTER":307.7744,"MEAN_ANOMALY":52.3302,"EPHEMERIS_TYPE":0,"CLASSIFICATION_TYPE":"U","NORAD_CAT_ID":49495,"ELEMENT_SET_NO":999,"REV_AT_EPOCH":22601,"BSTAR":5.592981e-6,"MEAN_MOTION_DOT":-2.5e-7,"MEAN_MOTION_DDOT":0},{"OBJECT_NAME":"UNKNOWN","OBJECT_ID":"","EPOCH":"2026-03-08T22:04:04.381824","MEAN_MOTION":14.54769338,"ECCENTRICITY":0.0296144,"INCLINATION":65.656,"RA_OF_ASC_NODE":44.0504,"ARG_OF_PERICENTER":173.1079,"MEAN_ANOMALY":187.4242,"EPHEMERIS_TYPE":0,"CLASSIFICATION_TYPE":"U","NORAD_CAT_ID":82180,"ELEMENT_SET_NO":999,"REV_AT_EPOCH":61426,"BSTAR":0.0016597,"MEAN_MOTION_DOT":0.00012787,"MEAN_MOTION_DDOT":0}]
